ONEWEB-0634             
1 56075U 23043AF  25236.75348807  .00000101  00000+0  23308-3 0  9995
2 56075  87.9078 318.3671 0001700 106.4354 253.6963 13.15547762117424
ONEWEB-0635             
1 56076U 23043AG  25236.67267786  .00000018  00000+0  13823-4 0  9992
2 56076  87.9050 318.3503 0002207  95.6722 264.4660 13.15547611117449
ONEWEB-0636             
1 56077U 23043AH  25236.74081522  .00000060  00000+0  12565-3 0  9991
2 56077  87.9056 318.3516 0002147  96.5389 263.5986 13.15548174117437
ONEWEB-0637             
1 56078U 23043AJ  25236.73448071 -.00000228  00000+0 -63893-3 0  9995
2 56078  87.9061 318.3653 0002219 105.6129 254.5246 13.15548448117455
ONEWEB-0647             
1 56079U 23043AK  25236.72971740 -.00000092  00000+0 -27953-3 0  9995
2 56079  87.9070 318.3781 0002020  93.7291 266.4070 13.15547030117447
ONEWEB-0651             
1 56080U 23043AL  25236.72496570 -.00000082  00000+0 -25158-3 0  9994
2 56080  87.9079 318.3691 0002231 100.4077 259.7305 13.15547944118643
ONEWEB-0718             
1 56081U 23043AM  25236.72022152 -.00000253  00000+0 -70498-3 0  9993
2 56081  87.9072 318.3523 0001663 116.4684 243.6617 13.15548316117450
ONEWEB-0561             
1 56710U 23068A   25236.76144804  .00000040  00000+0  65376-4 0  9994
2 56710  87.9293 333.5353 0002320  90.5496 269.5903 13.20772327110374
